     2.10           G: GLONASS NAV DATA                     RINEX VERSION / TYPE
teqc  2015Jun23                         20220729 01:26:42UTCPGM / RUN BY / DATE
Linux 2.4.21-27.ELsmp|Opteron|gcc -static|Linux x86_64|=+   COMMENT
  2022     7    19   -3.725290298462D-09                    CORR TO SYSTEM TIME
                                                            END OF HEADER
19 22  7 20 22 45  0.0-1.970389857888D-04-9.094947017729D-13 8.100000000000D+04
   -3.852272949219D+03-7.412910461426D-03-1.862645149231D-09 0.000000000000D+00
    2.103453906250D+04-1.919875144958D+00 2.793967723846D-09 3.000000000000D+00
    1.390597119141D+04 2.899534225464D+00-0.000000000000D+00 0.000000000000D+00
20 22  7 20 22 45  0.0-7.499102503061D-05-9.094947017729D-13 8.100000000000D+04
    5.377630859375D+03 3.362941741943D-01-9.313225746155D-10 0.000000000000D+00
    2.416289355469D+04 8.030538558960D-01 1.862645149231D-09 2.000000000000D+00
   -6.080711425781D+03 3.491174697876D+00 9.313225746155D-10 0.000000000000D+00
 9 22  7 20 22 45  0.0 6.686057895422D-05 1.818989403546D-12 8.172000000000D+04
    2.839121093750D+03-2.325352668762D+00-1.862645149231D-09 0.000000000000D+00
    1.202914453125D+04 1.973616600037D+00 1.862645149231D-09-2.000000000000D+00
    2.232473339844D+04-7.757234573364D-01-1.862645149231D-09 0.000000000000D+00
 9 22  7 20 23 15  0.0 6.686430424452D-05 1.818989403546D-12 8.280000000000D+04
   -9.145083007812D+02-1.820687294006D+00-9.313225746155D-10 0.000000000000D+00
    1.569376562500D+04 2.055291175842D+00 1.862645149231D-09-2.000000000000D+00
    2.008410595703D+04-1.697948455811D+00-9.313225746155D-10 0.000000000000D+00
20 22  7 20 23 15  0.0-7.499195635319D-05-9.094947017729D-13 8.280000000000D+04
    5.931486816406D+03 2.359638214111D-01-9.313225746155D-10 0.000000000000D+00
    2.478720068359D+04-1.085100173950D-01 2.793967723846D-09 2.000000000000D+00
    3.576435546875D+02 3.615993499756D+00 0.000000000000D+00 0.000000000000D+00
15 22  7 20 23 15  0.0 9.458791464567D-05-0.000000000000D+00 8.280000000000D+04
   -1.922586083984D+04 1.166137695312D+00 0.000000000000D+00 0.000000000000D+00
    1.231593750000D+04-1.039937973022D+00 9.313225746155D-10 0.000000000000D+00
   -1.134050634766D+04-3.099967002869D+00 1.862645149231D-09 0.000000000000D+00
19 22  7 20 23 15  0.0-1.970417797565D-04-9.094947017729D-13 8.280000000000D+04
   -4.251573730469D+03-4.596834182739D-01-9.313225746155D-10 0.000000000000D+00
    1.701403369141D+04-2.504921913147D+00 2.793967723846D-09 3.000000000000D+00
    1.852006054688D+04 2.193917274475D+00-9.313225746155D-10 0.000000000000D+00
21 22  7 20 23 15  0.0-3.190143033862D-04-2.728484105319D-12 8.313000000000D+04
    1.212560009766D+04 8.011331558228D-01 0.000000000000D+00 0.000000000000D+00
    1.388745068359D+04 2.286395072937D+00 0.000000000000D+00 4.000000000000D+00
   -1.765191552734D+04 2.347063064575D+00 9.313225746155D-10 0.000000000000D+00
 9 22  7 20 23 45  0.0 6.686802953482D-05 1.818989403546D-12 8.460000000000D+04
   -3.657412109375D+03-1.219856262207D+00-9.313225746155D-10 0.000000000000D+00
    1.926432080078D+04 1.865324020386D+00 2.793967723846D-09-2.000000000000D+00
    1.629029638672D+04-2.490202903748D+00-0.000000000000D+00 0.000000000000D+00
20 22  7 20 23 45  0.0-7.499381899834D-05-9.094947017729D-13 8.460000000000D+04
    6.078354492188D+03-1.107282638550D-01-9.313225746155D-10 0.000000000000D+00
    2.381188916016D+04-9.544277191162D-01 2.793967723846D-09 2.000000000000D+00
    6.768287109375D+03 3.460586547852D+00-0.000000000000D+00 0.000000000000D+00
15 22  7 20 23 45  0.0 9.458698332310D-05-0.000000000000D+00 8.460000000000D+04
   -1.686853271484D+04 1.408264160156D+00 9.313225746155D-10 0.000000000000D+00
    9.792457519531D+03-1.760369300842D+00 0.000000000000D+00 0.000000000000D+00
   -1.640894238281D+04-2.494943618774D+00 2.793967723846D-09 0.000000000000D+00
19 22  7 20 23 45  0.0-1.970445737243D-04-9.094947017729D-13 8.460000000000D+04
   -5.561039062500D+03-1.001168251038D+00-9.313225746155D-10 0.000000000000D+00
    1.218749658203D+04-2.807007789612D+00 1.862645149231D-09 3.000000000000D+00
    2.170193652344D+04 1.318513870239D+00-9.313225746155D-10 0.000000000000D+00
21 22  7 20 23 45  0.0-3.190189599991D-04-2.728484105319D-12 8.460000000000D+04
    1.366974023438D+04 8.728713989258D-01-0.000000000000D+00 0.000000000000D+00
    1.734535400391D+04 1.533196449280D+00 9.313225746155D-10 4.000000000000D+00
   -1.280061669922D+04 3.008325576782D+00 9.313225746155D-10 0.000000000000D+00
 5 22  7 20 23 45  0.0 9.655952453613D-05 9.094947017729D-13 8.619000000000D+04
   -1.461261425781D+04-2.671092987061D+00 9.313225746155D-10 0.000000000000D+00
    7.448455078125D+03-2.128562927246D-01 0.000000000000D+00 1.000000000000D+00
   -1.953284326172D+04 1.913838386536D+00 2.793967723846D-09 0.000000000000D+00
